OBJECT_NAME,OBJECT_ID,EPOCH,MEAN_MOTION,ECCENTRICITY,INCLINATION,RA_OF_ASC_NODE,ARG_OF_PERICENTER,MEAN_ANOMALY,EPHEMERIS_TYPE,CLASSIFICATION_TYPE,NORAD_CAT_ID,ELEMENT_SET_NO,REV_AT_EPOCH,BSTAR,MEAN_MOTION_DOT,MEAN_MOTION_DDOT
ONEWEB-0336,2021-083S,2026-06-06T17:54:27.876672,13.13470309,.00022373,87.8944,322.3078,96.0924,264.0460,0,U,49202,999,22954,.61832119E-3,.239E-5,0
ONEWEB-0337,2021-083T,2026-06-06T18:08:53.923488,13.13469791,.00019453,87.8943,322.3121,98.5274,261.6076,0,U,49203,999,22954,.96283433E-3,.364E-5,0
ONEWEB-0338,2021-083U,2026-06-06T01:21:09.853920,13.20770380,.0001614,87.9180,276.6683,100.5135,259.6181,0,U,49204,999,23534,.3532E-3,.157E-5,0
ONEWEB-0339,2021-083V,2026-06-06T16:31:34.813632,13.13469603,.00015031,87.8944,322.3176,97.8539,262.2761,0,U,49205,999,22951,.73664993E-3,.282E-5,0
ONEWEB-0340,2021-083W,2026-06-06T17:43:21.387936,13.18685839,.00019914,87.9166,337.5344,91.2767,268.8593,0,U,49206,999,22859,-.16875225E-3,-.54E-6,0
ONEWEB-0341,2021-083X,2026-06-06T17:53:04.337376,13.18686171,.00020493,87.9160,337.5369,104.2841,255.8519,0,U,49207,999,22861,.10923984E-3,.56E-6,0
ONEWEB-0342,2021-083Y,2026-06-06T01:30:52.334208,13.20770604,.0001802,87.9185,276.6544,102.3704,257.7631,0,U,49208,999,23531,.17151E-3,.83E-6,0
ONEWEB-0343,2021-083Z,2026-06-06T18:05:13.288992,13.18685722,.00014157,87.9169,337.5336,98.1357,261.9936,0,U,49209,999,22866,.19539528E-3,.9E-6,0
ONEWEB-0344,2021-083AA,2026-06-06T16:24:16.452000,13.13471353,.00019838,87.8935,322.3339,104.8520,255.2829,0,U,49210,999,22951,.86990531E-3,.33E-5,0
ONEWEB-0345,2021-083AB,2026-06-06T18:01:46.439616,13.13470749,.0001911,87.8952,322.2996,103.4509,256.6833,0,U,49211,999,22953,.10688007E-2,.403E-5,0
ONEWEB-0346,2021-083AC,2026-06-06T18:00:21.428928,13.18685344,.0002442,87.9158,337.5349,86.0093,274.1318,0,U,49212,999,22860,-.87880152E-4,-.22E-6,0
ONEWEB-0348,2021-083AD,2026-06-06T13:59:57.023232,13.20770968,.0002482,87.9195,276.5537,102.3284,257.8128,0,U,49213,999,23541,.10603E-3,.56E-6,0
ONEWEB-0350,2021-083AE,2026-06-06T16:29:59.739072,13.12942830,.00019685,87.8951,322.3152,100.6576,259.4774,0,U,49214,999,22955,.9798274E-3,.368E-5,0
ONEWEB-0351,2021-083AF,2026-06-06T13:50:02.242176,13.20770194,.0001549,87.9192,276.5535,126.9121,233.2154,0,U,49215,999,23537,.34649E-3,.154E-5,0
ONEWEB-0352,2021-083AG,2026-06-06T17:47:09.259296,13.13470769,.00014696,87.8946,322.3135,102.6705,257.4588,0,U,49216,999,22965,.4236363E-3,.167E-5,0
ONEWEB-0354,2021-083AH,2026-06-06T14:29:03.811776,13.20772774,.0002312,87.9191,276.5478,104.8131,255.3258,0,U,49217,999,23541,.26936E-3,.123E-5,0
ONEWEB-0355,2021-083AJ,2026-06-06T16:39:05.581440,13.13469322,.0001721,87.8942,322.3245,101.4746,258.6576,0,U,49218,999,22952,.35387469E-3,.142E-5,0
ONEWEB-0357,2021-083AK,2026-06-06T14:24:12.717216,13.20771993,.0001776,87.9194,276.5427,105.2265,254.9065,0,U,49219,999,23541,.66092E-4,.4E-6,0
ONEWEB-0332,2021-090A,2026-06-06T15:19:04.679040,13.14504357,.0001668,87.8957,291.8121,96.6113,263.5207,0,U,49279,999,22619,-.25432E-3,-.81E-6,0
ONEWEB-0347,2021-090B,2026-06-06T14:09:39.292704,13.20772161,.0001739,87.9192,276.5530,95.9956,264.1375,0,U,49280,999,22964,-.29995E-3,-.109E-5,0
ONEWEB-0349,2021-090C,2026-06-06T02:12:06.050880,13.20771523,.0001929,87.9193,276.6525,102.1443,257.9906,0,U,49281,999,22836,.14071E-3,.7E-6,0
ONEWEB-0353,2021-090D,2026-06-06T09:38:51.278496,13.14502319,.00016458,87.8955,291.8539,95.4489,264.6829,0,U,49282,999,22616,-.48589047E-3,-.167E-5,0
ONEWEB-0356,2021-090E,2026-06-05T20:42:24.640416,13.20773247,.00023892,87.9187,276.6915,82.1899,277.9505,0,U,49283,999,22833,-.70353564E-4,-.16E-6,0
ONEWEB-0358,2021-090F,2026-06-06T13:46:36.921216,13.20770682,.0002102,87.9187,276.5532,99.5678,260.5693,0,U,49284,999,22915,.98566E-4,.53E-6,0
ONEWEB-0359,2021-090G,2026-06-06T13:43:00.045120,13.20772737,.0002232,87.9190,276.5501,102.8782,257.2601,0,U,49285,999,22913,.32342E-3,.144E-5,0
ONEWEB-0360,2021-090H,2026-06-06T13:28:25.875840,13.20770932,.0001965,87.9196,276.5583,104.1755,255.9596,0,U,49286,999,22844,-.48076E-3,-.182E-5,0
ONEWEB-0361,2021-090J,2026-06-06T14:50:51.435168,13.20770615,.0002114,87.9188,276.5453,99.6848,260.4524,0,U,49287,999,22890,.18435E-3,.88E-6,0
ONEWEB-0362,2021-090K,2026-06-06T17:08:52.601280,13.19724553,.00016951,87.9160,307.0652,104.3256,255.8065,0,U,49288,999,22553,-.31732115E-3,-.114E-5,0
ONEWEB-0363,2021-090L,2026-06-06T13:23:34.630080,13.20772150,.0002121,87.9188,276.5576,92.5197,267.6179,0,U,49289,999,22890,-.76447E-3,-.298E-5,0
ONEWEB-0364,2021-090M,2026-06-06T14:19:20.901216,13.20770777,.0001996,87.9185,276.5583,101.0836,259.0522,0,U,49290,999,23004,.50991E-3,.22E-5,0
